[{"OBJECT_NAME":"TIANPING 2A","OBJECT_ID":"2022-032A","EPOCH":"2026-03-09T22:58:37.953408","MEAN_MOTION":14.9690979,"ECCENTRICITY":0.00109299,"INCLINATION":97.5994,"RA_OF_ASC_NODE":109.5163,"ARG_OF_PERICENTER":146.1091,"MEAN_ANOMALY":214.0831,"EPHEMERIS_TYPE":0,"CLASSIFICATION_TYPE":"U","NORAD_CAT_ID":52153,"ELEMENT_SET_NO":999,"REV_AT_EPOCH":21499,"BSTAR":3.4221979e-5,"MEAN_MOTION_DOT":3.37e-6,"MEAN_MOTION_DDOT":0},{"OBJECT_NAME":"STARLINK-5557","OBJECT_ID":"2023-028AF","EPOCH":"2026-03-09T19:58:10.638912","MEAN_MOTION":14.98330265,"ECCENTRICITY":0.00030854,"INCLINATION":69.9998,"RA_OF_ASC_NODE":224.127,"ARG_OF_PERICENTER":269.1629,"MEAN_ANOMALY":90.9177,"EPHEMERIS_TYPE":0,"CLASSIFICATION_TYPE":"U","NORAD_CAT_ID":55770,"ELEMENT_SET_NO":999,"REV_AT_EPOCH":16655,"BSTAR":6.873398e-6,"MEAN_MOTION_DOT":-1.1e-7,"MEAN_MOTION_DDOT":0}]
